[{"OBJECT_NAME":"STARLINK-32239","OBJECT_ID":"2024-204U","EPOCH":"2026-03-09T13:28:20.245152","MEAN_MOTION":15.3018969,"ECCENTRICITY":0.000122,"INCLINATION":53.1597,"RA_OF_ASC_NODE":127.9791,"ARG_OF_PERICENTER":70.5548,"MEAN_ANOMALY":289.5585,"EPHEMERIS_TYPE":0,"CLASSIFICATION_TYPE":"U","NORAD_CAT_ID":61892,"ELEMENT_SET_NO":999,"REV_AT_EPOCH":7507,"BSTAR":1.2187e-5,"MEAN_MOTION_DOT":2.0e-8,"MEAN_MOTION_DDOT":0},{"OBJECT_NAME":"TEVEL2-8","OBJECT_ID":"2025-052AF","EPOCH":"2026-03-09T16:02:08.542752","MEAN_MOTION":15.28392908,"ECCENTRICITY":0.0008031,"INCLINATION":97.4055,"RA_OF_ASC_NODE":324.2923,"ARG_OF_PERICENTER":124.9191,"MEAN_ANOMALY":235.2804,"EPHEMERIS_TYPE":0,"CLASSIFICATION_TYPE":"U","NORAD_CAT_ID":63239,"ELEMENT_SET_NO":999,"REV_AT_EPOCH":5480,"BSTAR":0.00069303947,"MEAN_MOTION_DOT":0.0001913,"MEAN_MOTION_DDOT":0}]
