STARLINK-32239          
1 61892U 24204U   26068.56134543  .00000002  00000+0  12187-4 0  9995
2 61892  53.1597 127.9791 0001220  70.5548 289.5585 15.30189690 75071
TEVEL2-8                
1 63239U 25052AF  26068.66815442  .00019130  00000+0  69304-3 0  9993
2 63239  97.4055 324.2923 0008031 124.9191 235.2804 15.28392908 54807
